[{"OBJECT_NAME":"ONEWEB-0336","OBJECT_ID":"2021-083S","EPOCH":"2026-03-09T18:29:50.106912","MEAN_MOTION":13.13469903,"ECCENTRICITY":0.00017571,"INCLINATION":87.9033,"RA_OF_ASC_NODE":340.0084,"ARG_OF_PERICENTER":64.3133,"MEAN_ANOMALY":295.8177,"EPHEMERIS_TYPE":0,"CLASSIFICATION_TYPE":"U","NORAD_CAT_ID":49202,"ELEMENT_SET_NO":999,"REV_AT_EPOCH":21786,"BSTAR":-0.0004478699,"MEAN_MOTION_DOT":-1.51e-6,"MEAN_MOTION_DDOT":0},{"OBJECT_NAME":"SL-14 DEB","OBJECT_ID":"1991-056DG","EPOCH":"2026-03-09T03:45:27.615168","MEAN_MOTION":13.11658689,"ECCENTRICITY":0.00382754,"INCLINATION":82.6145,"RA_OF_ASC_NODE":240.7072,"ARG_OF_PERICENTER":167.8252,"MEAN_ANOMALY":192.3802,"EPHEMERIS_TYPE":0,"CLASSIFICATION_TYPE":"U","NORAD_CAT_ID":47082,"ELEMENT_SET_NO":999,"REV_AT_EPOCH":25556,"BSTAR":0.0033210461,"MEAN_MOTION_DOT":1.198e-5,"MEAN_MOTION_DDOT":0}]
